ORBCOMM FM20 [+]        
1 25416U 98046D   24066.56923708  .00001545  00000+0  58738-3 0  9991
2 25416  44.9931 231.8030 0000644 158.5915 201.4959 14.34949011337048
ORBCOMM FM16 [-]        
1 25417U 98046E   24066.56993042  .00002345  00000+0  85064-3 0  9991
2 25417  44.9927 228.0325 0004068 119.8426 240.2826 14.35830708336978
ORBCOMM FM15 [-]        
1 25418U 98046F   24066.51441453  .00001880  00000+0  69528-3 0  9991
2 25418  44.9959 232.2047 0003699 121.4023 238.7186 14.35569861336973
ORBCOMM FM14 [-]        
1 25419U 98046G   24066.56641890  .00002344  00000+0  85216-3 0  9992
2 25419  44.9942 231.1558 0002395 118.4080 346.7315 14.35714972336937
ORBCOMM FM13 [+]        
1 25420U 98046H   24066.56066972  .00001769  00000+0  66387-3 0  9994
2 25420  44.9964 235.7056 0004526  99.1109 261.0250 14.35055371336007
ORBCOMM FM21 [-]        
1 25475U 98053A   24065.81299074  .00001319  00000+0  50771-3 0  9991
2 25475  45.0101 323.4714 0001366  13.3167 346.7716 14.35023028329913
ORBCOMM FM22 [-]        
1 25476U 98053B   24065.81342652  .00001633  00000+0  61114-3 0  9995
2 25476  45.0095 321.0093 0002976  23.3176 336.7806 14.35494111329902
ORBCOMM FM23 [-]        
1 25477U 98053C   24065.84285361  .00001593  00000+0  60268-3 0  9996
2 25477  45.0100 325.7745 0002358  16.9485 343.1441 14.35050134330069
